FLOCK 3P-39             
1 42038U 17008CU  17357.60136084  .00001817  00000-0  78729-4 0  9998
2 42038  97.4733  58.4132 0006310 272.2454  87.8060 15.23675769 47260
FLOCK 3P-15             
1 42039U 17008CV  17357.60690091  .00003951  00000-0  16762-3 0  9991
2 42039  97.4732  58.4187 0006157 271.0932  88.9599 15.23684093 46546
FLOCK 3P-13             
1 42040U 17008CW  17357.46881488  .00001167  00000-0  51683-4 0  9998
2 42040  97.4740  58.3053 0006068 273.8132  86.2411 15.23657074 46511
FLOCK 3P-55             
1 42041U 17008CX  17357.11942029  .00003765  00000-0  16005-3 0  9994
2 42041  97.4734  58.0011 0005872 279.7281  80.3293 15.23650105 47307
FLOCK 3P-56             
1 42042U 17008CY  17357.61311598  .00002868  00000-0  12068-3 0  9999
2 42042  97.4730  58.5523 0005781 276.0019  84.0559 15.24195659 47175
FLOCK 3P-81             
1 42043U 17008CZ  17357.42828668  .00002748  00000-0  11709-3 0  9998
2 42043  97.4758  58.3106 0006794 251.0565 108.9935 15.23799925 46522
FLOCK 3P-87             
1 42044U 17008DA  17357.43853914  .00002836  00000-0  12105-3 0  9991
2 42044  97.4754  58.2807 0006995 247.7792 112.2703 15.23711143 46676
FLOCK 3P-29             
1 42045U 17008DB  17357.83438410  .00001888  00000-0  81633-4 0  9995
2 42045  97.4740  58.5964 0006750 242.2592 117.7961 15.23707446 46583
FLOCK 3P-82             
1 42046U 17008DC  17357.76410078  .00002882  00000-0  12236-3 0  9995
2 42046  97.4755  58.6196 0007017 247.2197 112.8299 15.23877133 46627
FLOCK 3P-78             
1 42047U 17008DD  17357.83166738  .00002816  00000-0  12015-3 0  9997
2 42047  97.4756  58.6862 0006909 245.9050 114.1464 15.23737834 46566
FLOCK 3P-74             
1 42048U 17008DE  17357.71002724  .00003227  00000-0  13740-3 0  9992
2 42048  97.4759  58.5528 0007221 247.4719 112.5754 15.23689762 46543
FLOCK 3P-31             
1 42049U 17008DF  17357.44912311  .00002895  00000-0  12353-3 0  9994
2 42049  97.4736  58.1945 0006797 244.9599 115.0932 15.23711690 45960
FLOCK 3P-83             
1 42050U 17008DG  17357.44993611  .00002616  00000-0  11199-3 0  9996
2 42050  97.4755  58.2736 0007040 249.6798 110.3683 15.23680286 47236
FLOCK 3P-72             
1 42051U 17008DH  17357.36373194  .00000783  00000-0  35714-4 0  9999
2 42051  97.4766  58.2560 0006670 248.3821 111.6705 15.23602074 44814
LEMUR-2-REDFERN-GOES    
1 42059U 98067LA  17357.56571690  .00027367  00000-0  26386-3 0  9995
2 42059  51.6355 161.8778 0005732 274.3243  85.7097 15.66274007 45606
LEMUR-2-TRUTNA          
1 42067U 98067LC  17357.82489314  .00075723  00000-0  45335-3 0  9998
2 42067  51.6393 152.3036 0004648 266.8255  93.2214 15.77132784 45582
LEMUR-2-AUSTINTACIOUS   
1 42068U 98067LD  17357.54604113  .00025440  00000-0  22583-3 0  9995
2 42068  51.6359 160.2450 0005520 264.0468  95.9899 15.68367370 45555
LEMUR-2-TRUTNAHD        
1 42069U 98067LE  17357.57196784  .00026076  00000-0  24416-3 0  9992
2 42069  51.6365 161.1919 0005091 271.2937  88.7476 15.67035917 45590
HAVELSAT                
1 42700U 98067LH  17357.88182558  .00020538  00000-0  22546-3 0  9991
2 42700  51.6368 165.5103 0004099 303.5555  56.5048 15.63179200 34530
SOMP 2                  
1 42701U 98067LJ  17357.85713695  .00019519  00000-0  21889-3 0  9997
2 42701  51.6365 166.0959 0004130 302.8468  57.2128 15.62667021 34511
COLUMBIA                
1 42702U 98067LK  17357.82975542  .00109252  00000-0  63669-3 0  9992
2 42702  51.6316 158.3423 0004951 266.9815  93.0619 15.77588961 34542
SGSAT                   
1 42703U 98067LL  17357.83618438  .00058048  00000-0  45435-3 0  9999
2 42703  51.6331 161.4060 0003606 225.9507 134.1194 15.71019347 34491
CXBN-2                  
1 42704U 98067LM  17357.85935666  .00019769  00000-0  22065-3 0  9998
2 42704  51.6372 166.1152 0002171 221.3914 138.6916 15.62784076 34443
ICECUBE                 
1 42705U 98067LN  17357.86271492  .00017076  00000-0  17354-3 0  9994
2 42705  51.6402 164.6677 0002377 235.7224 124.3547 15.65297118 34524
PHOENIX                 
1 42706U 98067LP  17357.84368645  .00017716  00000-0  19960-3 0  9996
2 42706  51.6366 166.0085 0001219 218.4187 141.6721 15.62628162 34433
X-CUBESAT               
1 42707U 98067LQ  17357.69944327  .00020997  00000-0  23029-3 0  9993
2 42707  51.6351 166.5266 0001424 223.0219 137.0664 15.63191883 34408
QBEE50-LTU-OC           
1 42708U 98067LR  17357.84152257  .00020077  00000-0  22286-3 0  9997
2 42708  51.6363 165.9808 0001377 225.2213 134.8669 15.62914636 34387
ALTAIR PATHFINDER       
1 42711U 98067LS  17357.84102805  .00012225  00000-0  15436-3 0  9990
2 42711  51.6366 168.2328 0003942 233.5923 126.4707 15.59994600 34067
SHARC                   
1 42712U 98067LT  17357.87613044  .00010077  00000-0  13235-3 0  9994
2 42712  51.6383 168.4880 0002074 233.7933 126.2868 15.59181771 34300
ZA-AEROSAT              
1 42713U 98067LU  17357.87048331  .00016988  00000-0  19941-3 0  9993
2 42713  51.6362 166.9334 0002531 216.8980 143.1840 15.61596209 34089
LINK                    
1 42714U 98067LV  17357.69806388  .00032913  00000-0  32962-3 0  9992
2 42714  51.6341 165.7586 0003032 217.1174 142.9612 15.65230495 34191
CSUNSAT 1               
1 42715U 98067LW  17357.86519034  .00017355  00000-0  20195-3 0  9999
2 42715  51.6370 166.8989 0004347 223.3111 136.7541 15.61800507 34086
UPSAT                   
1 42716U 98067LX  17357.83183193  .00027489  00000-0  28463-3 0  9995
2 42716  51.6362 165.1734 0002622 294.9022  65.1700 15.64487320 34233
SPACECUBE               
1 42717U 98067LY  17357.85974493  .00019789  00000-0  22068-3 0  9998
2 42717  51.6359 166.1082 0002669 299.7879  60.2850 15.62805971 33461
HOOPOE                  
1 42718U 98067LZ  17357.87672466  .00022906  00000-0  24599-3 0  9992
2 42718  51.6365 165.4721 0002649 294.2658  65.8059 15.63671474 33477
CHALLENGER              
1 42721U 98067MA  17357.82536437  .00037940  00000-0  35784-3 0  9990
2 42721  51.6348 164.3564 0005333 275.5830  84.4558 15.66651086 33181
NJUST-1                 
1 42722U 98067MB  17357.84977400  .00014960  00000-0  17959-3 0  9993
2 42722  51.6369 167.5446 0005644 287.5736  72.4641 15.61113228 33144
UNSW-ECO                
1 42723U 98067MC  17357.84774130  .00025365  00000-0  27156-3 0  9990
2 42723  51.6375 166.0363 0005247 281.4074  78.6331 15.63675180 33147
DUTHSAT                 
1 42724U 98067MD  17357.85761281  .00034488  00000-0  33300-3 0  9999
2 42724  51.6356 164.5881 0004554 276.6742  83.3735 15.66117661 33085
LILACSAT-1              
1 42725U 98067ME  17357.87956220  .00019043  00000-0  21915-3 0  9990
2 42725  51.6368 166.9957 0004646 286.3928  73.6555 15.62013319 33055
NSIGHT-1                
1 42726U 98067MF  17357.86348204  .00007644  00000-0  10399-3 0  9995
2 42726  51.6380 169.1490 0005139 296.2170  63.8294 15.58650457 33038
SNUSAT-1                
1 42727U 98067MG  17357.75390964  .00020722  00000-0  23848-3 0  9999
2 42727  51.6354 167.6355 0006863 248.6265 111.3997 15.61936666 33003
QBITO                   
1 42728U 98067MH  17357.76319018  .00020173  00000-0  22550-3 0  9991
2 42728  51.6386 166.9878 0002266 279.5721  80.5017 15.62729994 32851
AALTO-2                 
1 42729U 98067MJ  17357.69681857  .00020833  00000-0  23197-3 0  9998
2 42729  51.6369 167.2778 0002269 278.3706  81.7031 15.62807200 32855
SUSAT                   
1 42730U 98067MK  17357.84851296  .00019003  00000-0  21571-3 0  9994
2 42730  51.6363 166.7846 0002394 278.4467  81.6255 15.62377091 32863
I-INSPIRE II            
1 42731U 98067ML  17357.70051938  .00027375  00000-0  28937-3 0  9999
2 42731  51.6355 166.5265 0006515 232.9551 127.0848 15.63945982 32905
POLYITAN-2-SAU          
1 42732U 98067MM  17357.87663497  .00021433  00000-0  23653-3 0  9996
2 42732  51.6362 166.2086 0006554 234.3622 125.6762 15.63000067 32927
SNUSAT-1B               
1 42733U 98067MN  17357.84961798  .00020381  00000-0  23094-3 0  9999
2 42733  51.6365 166.7828 0006510 236.5517 123.4855 15.62354931 32918
EXALTA-1                
1 42734U 98067MP  17357.83401303  .00026721  00000-0  28262-3 0  9996
2 42734  51.6352 165.9200 0007221 259.0708 100.9474 15.63939793 32870
AOXIANG-1               
1 42735U 98067MQ  17357.83974173  .00015603  00000-0  18594-3 0  9991
2 42735  51.6361 167.4695 0006197 284.5718  75.4588 15.61262579 34278
BEEAGLESAT              
1 42736U 98067MR  17357.87791855  .00018454  00000-0  21407-3 0  9994
2 42736  51.6360 166.9733 0006081 282.1521  77.8792 15.61823528 32978
ATLANTIS                
1 42737U 98067MS  17357.83515082  .00082390  00000-0  56327-3 0  9996
2 42737  51.6313 160.6262 0006240 263.3056  96.7233 15.74049167 32946
LEMUR-2-ANGELA          
1 42752U 17019B   17357.80872100  .00002277  00000-0  93722-4 0  9992
2 42752  51.6406 211.6721 0009873 301.6566  58.3450 15.28426592 30280
LEMUR-2-JENNYBARNA      
1 42753U 17019C   17357.85168991  .00001746  00000-0  74068-4 0  9996
2 42753  51.6402 211.2159 0009654 303.1978  56.8076 15.28794850 30247
LEMUR-2-ROBMOORE        
1 42754U 17019D   17357.81827434  .00001878  00000-0  79708-4 0  9999
2 42754  51.6402 211.7315 0009800 304.2544  55.7507 15.28351330 30262
LEMUR-2-SPIROVISION     
1 42755U 17019E   17357.79859338  .00002750  00000-0  10965-3 0  9994
2 42755  51.6397 211.6019 0009740 304.8546  55.1517 15.28699589 30151
UCLSAT                  
1 42765U 17036A   17357.22999343  .00001420  00000-0  66389-4 0  9998
2 42765  97.4266  54.7189 0011285 340.6804  19.4003 15.21369775 28548
LITUANICASAT-2          
1 42768U 17036D   17357.61045911  .00002337  00000-0  10947-3 0  9993
2 42768  97.4269  54.8300 0014982 325.6705  34.3561 15.20620147 27872
LEMUR-2-SHAINAJOHL      
1 42771U 17036G   17357.60131850  .00001766  00000-0  83710-4 0  9998
2 42771  97.4268  54.8390 0014151 325.4027  34.6286 15.20542872 27816
